STARLINK-3099           
1 49446U 21104AQ  24202.78768657  .00003111  00000+0  21343-3 0  9990
2 49446  53.2170   8.7168 0001110  74.5969 285.5145 15.08844743148805
STARLINK-3115           
1 49447U 21104AR  24202.79778906 -.00015566  00000+0 -96277-3 0  9997
2 49447  53.2180  18.6778 0001240 120.7726 239.3388 15.08813228148667
STARLINK-3137           
1 49449U 21104AT  24202.79412456  .00005773  00000+0  38045-3 0  9990
2 49449  53.2183  18.7065 0001485 106.5200 253.5956 15.08843248148666
STARLINK-3127           
1 49450U 21104AU  24202.80517119  .00001845  00000+0  13397-3 0  9995
2 49450  53.2182  18.6814 0001264  76.8794 283.2339 15.08839786148926
STARLINK-3125           
1 49451U 21104AV  24202.79044516 -.00001077  00000+0 -49563-4 0  9994
2 49451  53.2196  18.7155 0001552 115.8877 244.2276 15.08833587148668
STARLINK-3150           
1 49452U 21104AW  24202.78036560  .00022391  00000+0  14205-2 0  9997
2 49452  53.2166  18.7885 0000899  97.9836 262.1258 15.08839865148668
STARLINK-3129           
1 49453U 21104AX  24202.79140962 -.00000265  00000+0  14283-5 0  9997
2 49453  53.2182  18.7925 0001221 103.5571 256.5558 15.08840463148668
STARLINK-3160           
1 49454U 21104AY  24202.72052609  .00000432  00000+0  45244-4 0  9996
2 49454  53.2182  19.0256 0001192  83.1934 276.9193 15.08838192148659
STARLINK-3145           
1 49455U 21104AZ  24202.77204574  .00002426  00000+0  17045-3 0  9994
2 49455  53.2206  18.7884 0001581 105.5701 254.5466 15.08843109148663
STARLINK-3124           
1 49456U 21104BA  24202.78403816  .00000666  00000+0  59906-4 0  9993
2 49456  53.2169  18.7812 0001185  96.2325 263.8802 15.08843185148662
STARLINK-3132           
1 49457U 21104BB  24202.76932407  .00029126  00000+0  18404-2 0  9993
2 49457  53.2170  18.8143 0000849  87.9961 272.1128 15.08843086148666
STARLINK-3156           
1 49458U 21104BC  24202.77572657  .00002054  00000+0  14712-3 0  9992
2 49458  53.2174  18.7710 0001096  78.2068 281.9047 15.08838124148661
STARLINK-3141           
1 49459U 21104BD  24202.76468401 -.00002892  00000+0 -16367-3 0  9993
2 49459  53.2178  18.8253 0001413 100.1459 259.9692 15.08843638148668
STARLINK-3140           
1 49460U 21104BE  24202.76100281  .00000984  00000+0  79886-4 0  9998
2 49460  53.2168  18.8417 0001364  85.8838 274.2310 15.08840029148653
STARLINK-3219           
1 49724U 21115A   24202.56507701 -.00000687  00000+0 -25088-4 0  9996
2 49724  53.2151 309.9441 0001047  93.7536 266.3576 15.08836483145382
STARLINK-3218           
1 49725U 21115B   24202.58713554 -.00005057  00000+0 -30001-3 0  9990
2 49725  53.2181 309.7198 0001101  94.2628 265.8490 15.08822545145396
STARLINK-3237           
1 49726U 21115C   24202.56583167  .00197588  00000+0  40831-2 0  9994
2 49726  53.1905 295.9457 0006718 340.7717  19.3036 15.44594808146691
STARLINK-3242           
1 49727U 21115D   24202.60827739  .00001290  00000+0  99078-4 0  9999
2 49727  53.2186 319.5246 0001515  85.8351 274.2814 15.08847823146373
STARLINK-3240           
1 49728U 21115E   24202.54572207 -.00000555  00000+0 -16785-4 0  9999
2 49728  53.2187 319.8078 0001168  75.5047 284.6074 15.08844359145242
STARLINK-3251           
1 49729U 21115F   24202.60458855 -.00002787  00000+0 -15708-3 0  9991
2 49729  53.2188 319.4234 0001281 102.1674 257.9461 15.08845981145259
STARLINK-3249           
1 49730U 21115G   24202.64141533  .00003292  00000+0  22474-3 0  9997
2 49730  53.2169 319.5711 0000981  94.1509 265.9595 15.08856596145255
STARLINK-3246           
1 49732U 21115J   24202.64877718 -.00000260  00000+0  17372-5 0  9996
2 49732  53.2180 319.5003 0001250  79.4525 280.6608 15.08848909145256
STARLINK-3252           
1 49733U 21115K   24202.56045066  .00000605  00000+0  56126-4 0  9992
2 49733  53.2195 319.7459 0001244 104.2590 255.8541 15.08834290145249
STARLINK-3238           
1 49734U 21115L   24202.51353637  .00010561  00000+0  68083-3 0  9990
2 49734  53.2183 309.9731 0001613 111.4515 248.6649 15.08831245145389
STARLINK-3113           
1 49735U 21115M   24202.61931931  .00000736  00000+0  64349-4 0  9996
2 49735  53.2186 319.3668 0001151  90.2976 269.8148 15.08830996146369
STARLINK-3148           
1 49736U 21115N   24202.57606548 -.00000420  00000+0 -82711-5 0  9991
2 49736  53.2178 309.5526 0001354  91.9188 268.1959 15.08847682145397
STARLINK-3225           
1 49737U 21115P   24202.84838973  .00008805  00000+0  57017-3 0  9993
2 49737  53.2176 308.4468 0000971  77.5188 282.5913 15.08866439145439
STARLINK-3143           
1 49738U 21115Q   24202.61017134  .00002669  00000+0  18565-3 0  9994
2 49738  53.2189 309.7261 0001209  98.6062 261.5067 15.08857030146502
STARLINK-3155           
1 49739U 21115R   24202.63771932 -.00009506  00000+0 -58031-3 0  9991
2 49739  53.2182 319.3938 0001397  70.9282 289.1861 15.08819500145258
STARLINK-3226           
1 49740U 21115S   24202.59909969  .00000852  00000+0  71545-4 0  9990
2 49740  53.2181 309.5380 0001049  80.9331 279.1780 15.08868046146508
STARLINK-3244           
1 49741U 21115T   24202.59543442  .00002986  00000+0  20554-3 0  9994
2 49741  53.2173 309.5960 0001250  94.8821 265.2314 15.08848654145394
STARLINK-3202           
1 49742U 21115U   24202.60920207  .00004971  00000+0  33007-3 0  9998
2 49742  53.2185 309.5226 0000735 113.4207 246.6862 15.08850033145391
STARLINK-3239           
1 49743U 21115V   24202.59175717 -.00000456  00000+0 -10552-4 0  9992
2 49743  53.2173 309.5321 0001135  76.2965 283.8154 15.08833424145399
STARLINK-3231           
1 49744U 21115W   24202.60647148  .00001913  00000+0  13821-3 0  9995
2 49744  53.2168 309.4291 0001227  69.0251 291.0872 15.08843304145395
STARLINK-3241           
1 49745U 21115X   24202.60279236  .00006409  00000+0  42022-3 0  9995
2 49745  53.2177 309.5280 0001286 108.1048 252.0084 15.08853023145390
STARLINK-3233           
1 49746U 21115Y   24202.55769028 -.00000815  00000+0 -33157-4 0  9990
2 49746  53.2161 309.7512 0000472  97.4885 262.6160 15.08832407145383
STARLINK-3247           
1 49747U 21115Z   24202.61287391  .00001667  00000+0  12275-3 0  9997
2 49747  53.2172 309.5093 0001139  92.5661 267.5461 15.08854991145398
STARLINK-3248           
1 49748U 21115AA  24202.59074583  .00003300  00000+0  22529-3 0  9991
2 49748  53.2183 309.1802 0001299  82.6522 277.4618 15.08850931146517
STARLINK-3250           
1 49749U 21115AB  24202.57706464  .00003942  00000+0  26552-3 0  9992
2 49749  53.2185 309.9051 0001522 104.3920 255.7241 15.08851247145383
STARLINK-3236           
1 49750U 21115AC  24202.57336392  .00001365  00000+0  10382-3 0  9994
2 49750  53.2176 309.6924 0001486  90.6169 269.4994 15.08842427145390
STARLINK-3229           
1 49751U 21115AD  24202.62023123  .00001080  00000+0  85925-4 0  9996
2 49751  53.2164 309.3945 0001167  73.1351 286.9769 15.08840666146515
STARLINK-3209           
1 49752U 21115AE  24202.58900349  .00003447  00000+0  23449-3 0  9997
2 49752  53.2164 299.6221 0001116  78.2290 281.8828 15.08848038146641
STARLINK-3200           
1 49753U 21115AF  24202.56871582  .00002824  00000+0  19538-3 0  9994
2 49753  53.2162 309.7038 0001674  99.4288 260.6894 15.08854346145398
STARLINK-3193           
1 49754U 21115AG  24202.59173002  .00010474  00000+0  67481-3 0  9990
2 49754  53.2158 299.7075 0000825  77.0608 283.0477 15.08859392146649
STARLINK-3210           
1 49755U 21115AH  24202.58073154  .00006253  00000+0  41061-3 0  9993
2 49755  53.2187 309.6946 0001651 100.0323 260.0856 15.08838864145397
STARLINK-3207           
1 49756U 21115AJ  24202.59908085  .00013554  00000+0  86770-3 0  9993
2 49756  53.2165 299.5652 0001260  81.4145 278.6990 15.08855979145531
STARLINK-3197           
1 49757U 21115AK  24202.59267615  .00006370  00000+0  41778-3 0  9998
2 49757  53.2162 299.6102 0001318  75.4414 284.6725 15.08855359146644
STARLINK-3194           
1 49758U 21115AL  24202.54019569  .00000186  00000+0  29753-4 0  9996
2 49758  53.2158 299.8322 0001357  72.3600 287.7540 15.08851923145520
STARLINK-3204           
1 49759U 21115AM  24202.59540652  .00016148  00000+0  10303-2 0  9998
2 49759  53.2160 299.5840 0001188  76.4381 283.6744 15.08842808145533
STARLINK-3199           
1 49760U 21115AN  24202.54756634  .00001243  00000+0  96160-4 0  9991
2 49760  53.2178 299.8002 0001470  88.5539 271.5622 15.08842143145533
STARLINK-3203           
1 49761U 21115AP  24202.53651809 -.00000895  00000+0 -38143-4 0  9990
2 49761  53.2162 299.8479 0001158 102.4954 257.6168 15.08851551145527
STARLINK-3195           
1 49762U 21115AQ  24202.55491744  .00001566  00000+0  11640-3 0  9999
2 49762  53.2177 299.7642 0001268  98.6423 261.4713 15.08850173145533
STARLINK-3198           
1 49763U 21115AR  24202.54388558 -.00000460  00000+0 -10829-4 0  9990
2 49763  53.2177 299.8160 0001539  84.7780 275.3388 15.08841978145538
STARLINK-3206           
1 49764U 21115AS  24202.91667824  .01351525  00000+0  12502-1 0  9995
2 49764  53.2129 293.6969 0001147  63.6916 171.1239 15.64373165  5855
STARLINK-3227           
1 49765U 21115AT  24202.55219582  .00002479  00000+0  17375-3 0  9995
2 49765  53.2185 299.7897 0001121  93.0823 267.0297 15.08847444145534
STARLINK-3190           
1 49766U 21115AU  24202.56692778 -.00000318  00000+0 -18712-5 0  9999
2 49766  53.2182 299.7248 0001286  93.3888 266.7251 15.08832147145538
STARLINK-3192           
1 49767U 21115AV  24202.55860916  .00000659  00000+0  59514-4 0  9990
2 49767  53.2181 299.7448 0001242  82.2675 277.8458 15.08839748145539
STARLINK-3196           
1 49768U 21115AW  24202.57330965  .00006774  00000+0  44302-3 0  9991
2 49768  53.2162 299.6868 0001249  87.6537 272.4598 15.08861586145538
STARLINK-3208           
1 49769U 21115AX  24202.57428300  .00012882  00000+0  82557-3 0  9994
2 49769  53.2166 299.7265 0001002  89.9576 270.1531 15.08859732145532
